[{"OBJECT_NAME":"LKW-3","OBJECT_ID":"2018-006A","EPOCH":"2026-03-09T23:35:48.740928","MEAN_MOTION":15.33087407,"ECCENTRICITY":0.00022503,"INCLINATION":97.6481,"RA_OF_ASC_NODE":225.9034,"ARG_OF_PERICENTER":308.148,"MEAN_ANOMALY":51.9559,"EPHEMERIS_TYPE":0,"CLASSIFICATION_TYPE":"U","NORAD_CAT_ID":43146,"ELEMENT_SET_NO":999,"REV_AT_EPOCH":45350,"BSTAR":0.00042518021,"MEAN_MOTION_DOT":0.00013518,"MEAN_MOTION_DDOT":0},{"OBJECT_NAME":"STARLINK-34601","OBJECT_ID":"2025-167G","EPOCH":"2026-03-09T04:57:28.475712","MEAN_MOTION":15.30186675,"ECCENTRICITY":0.00012305,"INCLINATION":53.1619,"RA_OF_ASC_NODE":29.0619,"ARG_OF_PERICENTER":87.4764,"MEAN_ANOMALY":272.6377,"EPHEMERIS_TYPE":0,"CLASSIFICATION_TYPE":"U","NORAD_CAT_ID":65084,"ELEMENT_SET_NO":999,"REV_AT_EPOCH":3340,"BSTAR":0.00065799119,"MEAN_MOTION_DOT":0.00019171,"MEAN_MOTION_DDOT":0}]
